NORAD_CAT_ID,OBJECT_NAME,OBJECT_TYPE,EPOCH,MEAN_MOTION,ECCENTRICITY,INCLINATION,RA_OF_ASC_NODE,ARG_OF_PERICENTER,MEAN_ANOMALY,BSTAR,MEAN_MOTION_DOT,MEAN_MOTION_DDOT,TLE_LINE0,TLE_LINE1,TLE_LINE2,SEMIMAJOR_AXIS,PERIOD,APOGEE,PERIGEE,DECAYED
55790.0,STARLINK-5813,PAYLOAD,2024-04-24 10:42:43,14.98338566,0.0003108,69.9987,129.6608,271.472,88.6083,0.00018602,2.128e-05,0.0,0 STARLINK-5813,1 55790U 23028BB  24115.44633782  .00002128  00000-0  18602-3 0  9994,2 55790  69.9987 129.6608 0003108 271.4720  88.6083 14.98338566 64537,6950.166,96.106,574.192,569.871,0.0
55790.0,STARLINK-5813,PAYLOAD,2024-04-25 04:20:12,14.98336237,0.0002909,69.9992,127.81,266.6116,93.471,1.8573e-05,1.29e-06,0.0,0 STARLINK-5813,1 55790U 23028BB  24116.18070002  .00000129  00000-0  18573-4 0  9993,2 55790  69.9992 127.8100 0002909 266.6116  93.4710 14.98336237 64638,6950.174,96.107,574.06,570.017,0.0
55790.0,STARLINK-5813,PAYLOAD,2024-04-25 10:44:44,14.98335314,0.000288,69.9993,127.1369,267.473,92.6099,1.0064e-05,2.7e-07,0.0,0 STARLINK-5813,1 55790U 23028BB  24116.44773942  .00000027  00000-0  10064-4 0  9999,2 55790  69.9993 127.1369 0002880 267.4730  92.6099 14.98335314 64689,6950.176,96.107,574.043,570.04,0.0
55790.0,STARLINK-5813,PAYLOAD,2024-04-26 04:22:12,14.98341894,0.0003033,69.9989,125.2843,271.5442,88.5369,-8.2364e-05,-1.076e-05,0.0,0 STARLINK-5813,1 55790U 23028BB  24117.18209351 -.00001076  00000-0 -82364-4 0  9998,2 55790  69.9989 125.2843 0003033 271.5442  88.5369 14.98341894 64782,6950.156,96.106,574.129,569.913,0.0
55790.0,STARLINK-5813,PAYLOAD,2024-04-26 10:46:44,14.983412,0.0003054,69.9987,124.6107,269.0157,91.0652,-5.1041e-05,-7.02e-06,0.0,0 STARLINK-5813,1 55790U 23028BB  24117.44913078 -.00000702  00000-0 -51041-4 0  9998,2 55790  69.9987 124.6107 0003054 269.0157  91.0652 14.98341200 64835,6950.158,96.106,574.146,569.901,0.0
55790.0,STARLINK-5813,PAYLOAD,2024-04-27 04:24:13,14.98332476,0.0003024,69.9988,122.759,271.7224,88.3589,-2.1668e-05,-3.52e-06,0.0,0 STARLINK-5813,1 55790U 23028BB  24118.18349243 -.00000352  00000-0 -21668-4 0  9990,2 55790  69.9988 122.7590 0003024 271.7224  88.3589 14.98332476 64937,6950.185,96.107,574.152,569.948,0.0
55790.0,STARLINK-5813,PAYLOAD,2024-04-27 10:48:44,14.98380935,0.0002787,69.9988,122.0857,278.8336,81.2508,-0.00081681,-9.838e-05,0.0,0 STARLINK-5813,1 55790U 23028BB  24118.45051950 -.00009838  00000-0 -81681-3 0  9993,2 55790  69.9988 122.0857 0002787 278.8336  81.2508 14.98380935 64973,6950.035,96.104,573.837,569.963,0.0
55790.0,STARLINK-5813,PAYLOAD,2024-04-27 14:01:01,14.98332917,0.0003118,69.9988,121.749,273.2122,86.868,5.9408e-05,6.16e-06,0.0,0 STARLINK-5813,1 55790U 23028BB  24118.58404898  .00000616  00000-0  59408-4 0  9996,2 55790  69.9988 121.7490 0003118 273.2122  86.8680 14.98332917 65007,6950.184,96.107,574.216,569.882,0.0
55790.0,STARLINK-5813,PAYLOAD,2024-04-27 17:13:18,14.98328064,0.0003291,69.9987,121.4124,268.6313,91.4469,-8.4923e-05,-1.106e-05,0.0,0 STARLINK-5813,1 55790U 23028BB  24118.71757400 -.00001106  00000-0 -84923-4 0  9998,2 55790  69.9987 121.4124 0003291 268.6313  91.4469 14.98328064 65015,6950.199,96.107,574.351,569.777,0.0
55790.0,STARLINK-5813,PAYLOAD,2024-04-28 09:14:39,14.98327942,0.0003044,69.9986,119.729,269.9002,90.1808,-7.0845e-05,-9.38e-06,0.0,0 STARLINK-5813,1 55790U 23028BB  24119.38517524 -.00000938  00000-0 -70845-4 0  9993,2 55790  69.9986 119.7290 0003044 269.9002  90.1808 14.98327942 65122,6950.199,96.107,574.18,569.949,0.0
55790.0,STARLINK-5813,PAYLOAD,2024-04-28 17:15:19,14.98328456,0.0003051,69.9986,118.8874,270.1191,89.9618,-4.0546e-05,-5.77e-06,0.0,0 STARLINK-5813,1 55790U 23028BB  24119.71897423 -.00000577  00000-0 -40546-4 0  9993,2 55790  69.9986 118.8874 0003051 270.1191  89.9618 14.98328456 65161,6950.198,96.107,574.183,569.942,0.0
55790.0,STARLINK-5813,PAYLOAD,2024-04-29 09:16:39,14.98330244,0.0003064,69.9983,117.204,269.9338,90.147,7.9974e-06,2e-08,0.0,0 STARLINK-5813,1 55790U 23028BB  24120.38657208  .00000002  00000-0  79974-5 0  9992,2 55790  69.9983 117.2040 0003064 269.9338  90.1470 14.98330244 65279,6950.192,96.107,574.187,569.928,0.0
55790.0,STARLINK-5813,PAYLOAD,2024-04-29 17:17:20,14.98331044,0.0003082,69.9984,116.3623,267.6833,92.3973,-3.9835e-06,-1.41e-06,0.0,0 STARLINK-5813,1 55790U 23028BB  24120.72037158 -.00000141  00000-0 -39835-5 0  9994,2 55790  69.9984 116.3623 0003082 267.6833  92.3973 14.98331044 65318,6950.19,96.107,574.197,569.913,0.0
55790.0,STARLINK-5813,PAYLOAD,2024-04-30 09:18:40,14.9832962,0.0003083,69.9984,114.6791,269.4008,90.6798,6.7397e-05,7.11e-06,0.0,0 STARLINK-5813,1 55790U 23028BB  24121.38797107  .00000711  00000-0  67397-4 0  9998,2 55790  69.9984 114.6791 0003083 269.4008  90.6798 14.98329620 65425,6950.194,96.107,574.202,569.916,0.0
55790.0,STARLINK-5813,PAYLOAD,2024-04-30 17:19:21,14.98329509,0.000308,69.9984,113.8373,269.3907,90.6899,3.7814e-05,3.58e-06,0.0,0 STARLINK-5813,1 55790U 23028BB  24121.72177185  .00000358  00000-0  37814-4 0  9992,2 55790  69.9984 113.8373 0003080 269.3907  90.6899 14.98329509 65468,6950.194,96.107,574.2,569.919,0.0
55790.0,STARLINK-5813,PAYLOAD,2024-05-01 09:20:41,14.9833154,0.0003058,69.9984,112.1539,269.2396,90.8413,1.3013e-05,6.2e-07,0.0,0 STARLINK-5813,1 55790U 23028BB  24122.38937095  .00000062  00000-0  13013-4 0  9996,2 55790  69.9984 112.1539 0003058 269.2396  90.8413 14.98331540 65574,6950.188,96.107,574.178,569.928,0.0
55790.0,STARLINK-5813,PAYLOAD,2024-05-02 04:34:18,14.98331987,0.0003035,69.9983,110.1339,269.2243,90.8568,-1.542e-06,-1.11e-06,0.0,0 STARLINK-5813,1 55790U 23028BB  24123.19049002 -.00000111  00000-0 -15420-5 0  9990,2 55790  69.9983 110.1339 0003035 269.2243  90.8568 14.98331987 65683,6950.187,96.107,574.161,569.942,0.0
55790.0,STARLINK-5813,PAYLOAD,2024-05-02 09:22:42,14.98332778,0.0003067,69.9983,109.6292,269.6855,90.3952,8.3028e-07,-8.3e-07,0.0,0 STARLINK-5813,1 55790U 23028BB  24123.39076913 -.00000083  00000-0  83028-6 0  9990,2 55790  69.9983 109.6292 0003067 269.6855  90.3952 14.98332778 65728,6950.184,96.107,574.181,569.918,0.0
55790.0,STARLINK-5813,PAYLOAD,2024-05-03 04:36:19,14.98331927,0.0003034,69.9983,107.6092,270.4945,89.5867,2.8128e-05,2.43e-06,0.0,0 STARLINK-5813,1 55790U 23028BB  24124.19188775  .00000243  00000-0  28128-4 0  9994,2 55790  69.9983 107.6092 0003034 270.4945  89.5867 14.98331927 65830,6950.187,96.107,574.161,569.943,0.0
55790.0,STARLINK-5813,PAYLOAD,2024-05-03 07:48:34,14.98335357,0.0002984,69.9984,107.2728,269.4469,90.6348,5.1192e-05,5.18e-06,0.0,0 STARLINK-5813,1 55790U 23028BB  24124.32540444  .00000518  00000-0  51192-4 0  9996,2 55790  69.9984 107.2728 0002984 269.4469  90.6348 14.98335357 65866,6950.176,96.107,574.115,569.967,0.0
55790.0,STARLINK-5813,PAYLOAD,2024-05-03 15:49:15,14.98330561,0.000265,69.9992,106.4307,272.5123,87.5732,-4.7854e-05,-6.64e-06,0.0,0 STARLINK-5813,1 55790U 23028BB  24124.65921026 -.00000664  00000-0 -47854-4 0  9995,2 55790  69.9992 106.4307 0002650 272.5123  87.5732 14.98330561 65911,6950.191,96.107,573.898,570.214,0.0
55790.0,STARLINK-5813,PAYLOAD,2024-05-04 01:26:05,14.9831165,0.0003032,69.9985,105.4213,267.6778,92.4034,-0.00020588,-2.547e-05,0.0,0 STARLINK-5813,1 55790U 23028BB  24125.05978757 -.00002547  00000-0 -20588-3 0  9999,2 55790  69.9985 105.4213 0003032 267.6778  92.4034 14.98311650 65967,6950.25,96.108,574.222,570.007,0.0
55790.0,STARLINK-5813,PAYLOAD,2024-05-04 15:51:18,14.9831488,0.0002986,69.9987,103.9061,268.452,91.6297,-0.00013434,-1.695e-05,0.0,0 STARLINK-5813,1 55790U 23028BB  24125.66062978 -.00001695  00000-0 -13434-3 0  9990,2 55790  69.9987 103.9061 0002986 268.4520  91.6297 14.98314880 66055,6950.24,96.108,574.18,570.029,0.0
55790.0,STARLINK-5813,PAYLOAD,2024-05-05 04:40:22,14.98320272,0.000332,69.999,102.56,265.5474,94.5305,-2.4771e-05,-3.89e-06,0.0,0 STARLINK-5813,1 55790U 23028BB  24126.19470667 -.00000389  00000-0 -24771-4 0  9993,2 55790  69.9990 102.5600 0003320 265.5474  94.5305 14.98320272 66135,6950.223,96.108,574.395,569.781,0.0
55790.0,STARLINK-5813,PAYLOAD,2024-05-05 07:52:39,14.98312217,0.0003116,69.9993,102.2242,258.4732,101.6078,7.4071e-05,7.9e-06,0.0,0 STARLINK-5813,1 55790U 23028BB  24126.32823030  .00000790  00000-0  74071-4 0  9996,2 55790  69.9993 102.2242 0003116 258.4732 101.6078 14.98312217 66168,6950.248,96.108,574.279,569.947,0.0
55790.0,STARLINK-5813,PAYLOAD,2024-05-06 04:42:23,14.98316348,0.0003132,69.9986,100.0339,266.0322,94.0479,0.00016671,1.896e-05,0.0,0 STARLINK-5813,1 55790U 23028BB  24127.19611028  .00001896  00000-0  16671-3 0  9993,2 55790  69.9986 100.0339 0003132 266.0322  94.0479 14.98316348 66283,6950.235,96.108,574.277,569.923,0.0
55790.0,STARLINK-5813,PAYLOAD,2024-05-06 07:54:40,14.9831764,0.0003116,69.9987,99.6973,266.0251,94.0551,0.00017384,1.981e-05,0.0,0 STARLINK-5813,1 55790U 23028BB  24127.32963039  .00001981  00000-0  17384-3 0  9997,2 55790  69.9987  99.6973 0003116 266.0251  94.0551 14.98317640 66315,6950.231,96.108,574.262,569.93,0.0
55790.0,STARLINK-5813,PAYLOAD,2024-05-06 20:43:44,14.98329317,0.0003103,69.9989,98.3516,265.7953,94.2852,0.00014124,1.593e-05,0.0,0 STARLINK-5813,1 55790U 23028BB  24127.86370628  .00001593  00000-0  14124-3 0  9990,2 55790  69.9989  98.3516 0003103 265.7953  94.2852 14.98329317 66384,6950.195,96.107,574.217,569.903,0.0
55790.0,STARLINK-5813,PAYLOAD,2024-05-06 22:19:52,14.98330238,0.0003106,69.9989,98.1833,265.8322,94.2482,0.00014804,1.674e-05,0.0,0 STARLINK-5813,1 55790U 23028BB  24127.93046547  .00001674  00000-0  14804-3 0  9993,2 55790  69.9989  98.1833 0003106 265.8322  94.2482 14.98330238 66404,6950.192,96.107,574.216,569.898,0.0
55790.0,STARLINK-5813,PAYLOAD,2024-05-07 07:56:39,14.98342409,0.0003023,69.9991,97.1729,264.7268,95.3546,0.00021606,2.487e-05,0.0,0 STARLINK-5813,1 55790U 23028BB  24128.33101465  .00002487  00000-0  21606-3 0  9990,2 55790  69.9991  97.1729 0003023 264.7268  95.3546 14.98342409 66456,6950.155,96.106,574.121,569.918,0.0
